CS1                     
1 49261U 21088B   26068.75173904  .00015722  00000+0  51176-3 0  9998
2 49261  97.3882 132.1684 0014129  78.0335 282.2490 15.31848439245182
STARLINK-33789          
1 63657U 25083Z   26068.20119409  .00039210  00000+0  14268-2 0  9990
2 63657  43.0032   7.8350 0001706 282.1134  77.9527 15.27579767 50029
